NORAD_CAT_ID,OBJECT_NAME,OBJECT_TYPE,EPOCH,MEAN_MOTION,ECCENTRICITY,INCLINATION,RA_OF_ASC_NODE,ARG_OF_PERICENTER,MEAN_ANOMALY,BSTAR,MEAN_MOTION_DOT,MEAN_MOTION_DDOT,TLE_LINE0,TLE_LINE1,TLE_LINE2,SEMIMAJOR_AXIS,PERIOD,APOGEE,PERIGEE,DECAYED
55291.0,STARLINK-5327,PAYLOAD,2023-02-24 19:34:31,15.69923843,0.0003203,69.9998,326.9028,269.1112,90.9717,6.6279e-05,7.764e-05,0.0,0 STARLINK-5327,1 55291U 23010Y   23055.81564396  .00007764  00000-0  66279-4 0  9993,2 55291  69.9998 326.9028 0003203 269.1112  90.9717 15.69923843  6519,6737.252,91.724,361.275,356.959,0.0
55291.0,STARLINK-5327,PAYLOAD,2023-02-25 03:13:16,15.69954119,0.0003611,69.9999,326.0064,262.7853,97.2932,0.00036504,0.00043967,0.0,0 STARLINK-5327,1 55291U 23010Y   23056.13422390  .00043967  00000-0  36504-3 0  9998,2 55291  69.9999 326.0064 0003611 262.7853  97.2932 15.69954119  6255,6737.165,91.722,361.463,356.597,0.0
55291.0,STARLINK-5327,PAYLOAD,2023-02-25 18:30:48,15.69946827,0.0002527,70.0012,324.2163,268.4891,91.6015,0.00021789,0.0002609,0.0,0 STARLINK-5327,1 55291U 23010Y   23056.77139319  .00026090  00000-0  21789-3 0  9991,2 55291  70.0012 324.2163 0002527 268.4891  91.6015 15.69946827  6352,6737.186,91.723,360.754,357.349,0.0
55291.0,STARLINK-5327,PAYLOAD,2023-02-25 20:02:33,15.69936143,0.0003645,69.9999,324.0361,255.5971,104.482,0.00010319,0.0001222,0.0,0 STARLINK-5327,1 55291U 23010Y   23056.83510713  .00012220  00000-0  10319-3 0  9996,2 55291  69.9999 324.0361 0003645 255.5971 104.4820 15.69936143  6671,6737.217,91.723,361.537,356.626,0.0
55291.0,STARLINK-5327,PAYLOAD,2023-02-26 03:41:18,15.69944038,0.000336,70.0014,323.1406,262.0925,97.9889,0.00011,0.00013045,0.0,0 STARLINK-5327,1 55291U 23010Y   23057.15368914  .00013045  00000-0  11000-3 0  9990,2 55291  70.0014 323.1406 0003360 262.0925  97.9889 15.69944038  6413,6737.194,91.723,361.323,356.795,0.0
55291.0,STARLINK-5327,PAYLOAD,2023-02-26 20:30:35,15.69925308,0.0004069,69.9998,321.1687,267.7597,92.3133,6.7466e-05,7.908e-05,0.0,0 STARLINK-5327,1 55291U 23010Y   23057.85457536  .00007908  00000-0  67466-4 0  9995,2 55291  69.9998 321.1687 0004069 267.7597  92.3133 15.69925308  6526,6737.248,91.724,361.854,356.371,0.0
55291.0,STARLINK-5327,PAYLOAD,2023-02-27 02:37:35,15.69937568,0.0003502,70.0007,320.4526,255.2653,104.8154,8.3449e-05,9.839e-05,0.0,0 STARLINK-5327,1 55291U 23010Y   23058.10943904  .00009839  00000-0  83449-4 0  9997,2 55291  70.0007 320.4526 0003502 255.2653 104.8154 15.69937568  6567,6737.213,91.723,361.437,356.718,0.0
55291.0,STARLINK-5327,PAYLOAD,2023-02-27 20:58:36,15.69944957,0.0003684,69.9999,318.3023,259.7034,100.3747,6.2637e-05,7.332e-05,0.0,0 STARLINK-5327,1 55291U 23010Y   23058.87403246  .00007332  00000-0  62637-4 0  9993,2 55291  69.9999 318.3023 0003684 259.7034 100.3747 15.69944957  6991,6737.191,91.723,361.538,356.574,0.0
55291.0,STARLINK-5327,PAYLOAD,2023-02-28 03:05:36,15.69939888,0.0003846,70.0004,317.5864,272.4708,87.6047,4.5167e-05,5.225e-05,0.0,0 STARLINK-5327,1 55291U 23010Y   23059.12889993  .00005225  00000-0  45167-4 0  9997,2 55291  70.0004 317.5864 0003846 272.4708  87.6047 15.69939888  6723,6737.206,91.723,361.662,356.48,0.0
55291.0,STARLINK-5327,PAYLOAD,2023-02-28 19:54:55,15.69895751,0.0002677,70.0012,315.6156,273.2945,86.7945,-5.8366e-05,-7.215e-05,0.0,0 STARLINK-5327,1 55291U 23010Y   23059.82980566 -.00007215  00000-0 -58366-4 0  9990,2 55291  70.0012 315.6156 0002677 273.2945  86.7945 15.69895751  7142,6737.332,91.726,361.001,357.394,0.0
55291.0,STARLINK-5327,PAYLOAD,2023-03-01 03:33:41,15.69901775,0.0002643,70.0013,314.7207,263.9569,96.1325,2.1366e-06,4.4e-07,0.0,0 STARLINK-5327,1 55291U 23010Y   23060.14839321  .00000044  00000-0  21366-5 0  9991,2 55291  70.0013 314.7207 0002643 263.9569  96.1325 15.69901775  6882,6737.315,91.725,360.961,357.399,0.0
55291.0,STARLINK-5327,PAYLOAD,2023-03-01 20:22:56,15.69941452,0.0002968,70.0018,312.7492,264.9784,95.1073,0.0001256,0.00014926,0.0,0 STARLINK-5327,1 55291U 23010Y   23060.84926736  .00014926  00000-0  12560-3 0  9993,2 55291  70.0018 312.7492 0002968 264.9784  95.1073 15.69941452  7304,6737.202,91.723,361.066,357.067,0.0
55291.0,STARLINK-5327,PAYLOAD,2023-03-02 19:19:13,15.69932682,0.0003009,70.0016,310.0612,274.6841,85.4011,-6.411e-06,-9.83e-06,0.0,0 STARLINK-5327,1 55291U 23010Y   23061.80501509 -.00000983  00000-0 -64110-5 0  9997,2 55291  70.0016 310.0612 0003009 274.6841  85.4011 15.69932682  7451,6737.227,91.724,361.119,357.064,0.0
55291.0,STARLINK-5327,PAYLOAD,2023-03-03 04:29:43,15.69948625,0.0003496,70.0024,308.9882,276.217,83.8628,4.9991e-05,5.809e-05,0.0,0 STARLINK-5327,1 55291U 23010Y   23062.18730879  .00005809  00000-0  49991-4 0  9992,2 55291  70.0024 308.9882 0003496 276.2170  83.8628 15.69948625  7201,6737.181,91.723,361.401,356.691,0.0
55291.0,STARLINK-5327,PAYLOAD,2023-03-03 15:11:59,15.69938118,0.0003036,70.0018,307.7342,287.5502,72.5362,5.2016e-05,6.05e-05,0.0,0 STARLINK-5327,1 55291U 23010Y   23062.63332761  .00006050  00000-0  52016-4 0  9991,2 55291  70.0018 307.7342 0003036 287.5502  72.5362 15.69938118  7279,6737.211,91.723,361.121,357.031,0.0
55291.0,STARLINK-5327,PAYLOAD,2023-03-03 22:50:45,15.69935739,0.0003558,70.0018,306.8382,268.8012,91.2777,5.0617e-05,5.881e-05,0.0,0 STARLINK-5327,1 55291U 23010Y   23062.95190998  .00005881  00000-0  50617-4 0  9996,2 55291  70.0018 306.8382 0003558 268.8012  91.2777 15.69935739  7634,6737.218,91.723,361.48,356.686,0.0
55291.0,STARLINK-5327,PAYLOAD,2023-03-04 04:57:45,15.69921357,0.0003279,70.0013,306.1207,269.4086,90.6734,1.211e-06,-6.7e-07,0.0,0 STARLINK-5327,1 55291U 23010Y   23063.20678123 -.00000067  00000-0  12110-5 0  9995,2 55291  70.0013 306.1207 0003279 269.4086  90.6734 15.69921357  7363,6737.259,91.724,361.333,356.915,0.0
55291.0,STARLINK-5327,PAYLOAD,2023-03-04 18:43:32,15.69921032,0.0003499,70.0012,304.5087,267.9907,92.0888,2.7413e-05,3.084e-05,0.0,0 STARLINK-5327,1 55291U 23010Y   23063.78023441  .00003084  00000-0  27413-4 0  9997,2 55291  70.0012 304.5087 0003499 267.9907  92.0888 15.69921032  7769,6737.26,91.724,361.482,356.768,0.0
55291.0,STARLINK-5327,PAYLOAD,2023-03-05 22:15:03,15.69945736,0.0003675,70.0019,301.2852,271.4208,88.6566,0.00010058,0.0001191,0.0,0 STARLINK-5327,1 55291U 23010Y   23064.92712927  .00011910  00000-0  10058-3 0  9991,2 55291  70.0019 301.2852 0003675 271.4208  88.6566 15.69945736  7637,6737.189,91.723,361.53,356.578,0.0
55291.0,STARLINK-5327,PAYLOAD,2023-03-06 01:18:34,15.69917799,0.0002968,70.0006,300.9267,268.2035,91.8821,-5.8465e-05,-7.234e-05,0.0,0 STARLINK-5327,1 55291U 23010Y   23065.05456664 -.00007234  00000-0 -58465-4 0  9990,2 55291  70.0006 300.9267 0002968 268.2035  91.8821 15.69917799  7655,6737.269,91.725,361.134,357.135,0.0
55291.0,STARLINK-5327,PAYLOAD,2023-03-06 19:39:36,15.69921071,0.0002863,70.001,298.7766,271.9254,88.1614,1.5801e-05,1.688e-05,0.0,0 STARLINK-5327,1 55291U 23010Y   23065.81917272  .00001688  00000-0  15801-4 0  9993,2 55291  70.0010 298.7766 0002863 271.9254  88.1614 15.69921071  8081,6737.26,91.724,361.054,357.196,0.0
55291.0,STARLINK-5327,PAYLOAD,2023-03-07 00:14:51,15.699262,0.0002641,70.0004,298.2379,274.9067,85.1827,0.00011328,0.0001343,0.0,0 STARLINK-5327,1 55291U 23010Y   23066.01032397  .00013430  00000-0  11328-3 0  9999,2 55291  70.0004 298.2379 0002641 274.9067  85.1827 15.69926200  7809,6737.245,91.724,360.889,357.331,0.0
55291.0,STARLINK-5327,PAYLOAD,2023-03-07 21:39:23,15.69948636,0.0002252,70.0014,295.7314,243.6321,116.4644,0.00012852,0.00015282,0.0,0 STARLINK-5327,1 55291U 23010Y   23066.90235082  .00015282  00000-0  12852-3 0  9993,2 55291  70.0014 295.7314 0002252 243.6321 116.4644 15.69948636  8257,6737.181,91.723,360.563,357.529,0.0
55291.0,STARLINK-5327,PAYLOAD,2023-03-08 00:42:53,15.699467,0.0004178,69.9999,295.3729,260.7739,99.2984,0.00012052,0.00014319,0.0,0 STARLINK-5327,1 55291U 23010Y   23067.02978230  .00014319  00000-0  12052-3 0  9998,2 55291  69.9999 295.3729 0004178 260.7739  99.2984 15.69946700  7966,6737.186,91.723,361.866,356.237,0.0
55291.0,STARLINK-5327,PAYLOAD,2023-03-08 14:28:39,15.69926975,0.0003378,69.9987,293.76,260.5749,99.5065,0.00012107,0.00014372,0.0,0 STARLINK-5327,1 55291U 23010Y   23067.60323772  .00014372  00000-0  12107-3 0  9997,2 55291  69.9987 293.7600 0003378 260.5749  99.5065 15.69926975  8059,6737.243,91.724,361.384,356.832,0.0
55291.0,STARLINK-5327,PAYLOAD,2023-03-09 21:03:41,15.69949316,0.000385,70.0004,290.1784,265.6172,94.4583,0.0001766,0.00021099,0.0,0 STARLINK-5327,1 55291U 23010Y   23068.87756822  .00021099  00000-0  17660-3 0  9996,2 55291  70.0004 290.1784 0003850 265.6172  94.4583 15.69949316  8566,6737.179,91.723,361.638,356.45,0.0
55291.0,STARLINK-5327,PAYLOAD,2023-03-10 00:07:12,15.69915066,0.0002803,70.0008,289.8206,263.0891,96.9986,-5.029e-05,-6.252e-05,0.0,0 STARLINK-5327,1 55291U 23010Y   23069.00500557 -.00006252  00000-0 -50290-4 0  9997,2 55291  70.0008 289.8206 0002803 263.0891  96.9986 15.69915066  8278,6737.277,91.725,361.03,357.254,0.0
55291.0,STARLINK-5327,PAYLOAD,2023-03-10 07:45:58,15.69910589,0.000273,70.0009,288.9259,262.9633,97.1252,-1.577e-05,-2.107e-05,0.0,0 STARLINK-5327,1 55291U 23010Y   23069.32359316 -.00002107  00000-0 -15770-4 0  9996,2 55291  70.0009 288.9259 0002730 262.9633  97.1252 15.69910589  8632,6737.29,91.725,360.994,357.316,0.0
55291.0,STARLINK-5327,PAYLOAD,2023-03-11 02:06:59,15.69933804,0.0003734,70.0003,286.7736,269.263,90.8138,8.2326e-05,9.702e-05,0.0,0 STARLINK-5327,1 55291U 23010Y   23070.08818735  .00009702  00000-0  82326-4 0  9993,2 55291  70.0003 286.7736 0003734 269.2630  90.8138 15.69933804  8441,6737.223,91.724,361.604,356.573,0.0
55291.0,STARLINK-5327,PAYLOAD,2023-03-11 15:52:45,15.69918812,0.0003743,70.0017,285.1621,265.4248,94.652,2.8621e-05,3.229e-05,0.0,0 STARLINK-5327,1 55291U 23010Y   23070.66164071  .00003229  00000-0  28621-4 0  9990,2 55291  70.0017 285.1621 0003743 265.4248  94.6520 15.69918812  8848,6737.266,91.724,361.653,356.61,0.0
